satname,norad_id,inclination_deg,eccentricity,mean_motion_rev_per_day,perigee_km,apogee_km,l1,l2
STARLINK-1496,45780,53.0561,0.000258,15.37789622,450.88473716969565,454.4094217546981,1 45780U 20038BC  26009.49642480  .00076325  00000+0  20156-2 0  9999,2 45780  53.0561  98.7567 0002580  25.7923 334.3208 15.37789622307879
STARLINK-1497,45781,53.0372,0.0006863,15.80959935,323.1225625930665,332.32702849362886,1 45781U 20038BD  26010.00002315  .00207067  00000+0  10222-2 0  9998,2 45781  53.0372  15.4085 0006863  56.2980 149.3868 15.80959935  5810
STARLINK-1513,45786,53.0559,0.0001171,15.06405554,546.3835794576598,548.0054921033397,1 45786U 20038BJ  26009.46728848  .00001642  00000+0  12910-3 0  9995,2 45786  53.0559 102.4799 0001171  76.7304 283.3816 15.06405554307835
STARLINK-1522,46027,53.0554,0.0001428,15.06407862,546.1985258122168,548.1763984786057,1 46027U 20055A   26009.38159197  .00002447  00000+0  18304-3 0  9996,2 46027  53.0554  32.8616 0001428  95.4099 264.7053 15.06407862299949
STARLINK-1523,46028,53.0547,0.0001826,15.06416595,545.8961377608175,548.4252564798062,1 46028U 20055B   26009.32998786  .00003957  00000+0  28425-3 0  9998,2 46028  53.0547  33.0958 0001826  50.6627 309.4523 15.06416595299959
STARLINK-1526,46029,53.0559,0.0001349,15.06398114,546.283107962443,548.1515685629065,1 46029U 20055C   26009.32263199  .00008070  00000+0  56005-3 0  9998,2 46029  53.0559  33.1263 0001349  86.4298 273.6846 15.06398114299949
STARLINK-1555,46032,53.0547,0.0001316,15.0640984,546.2700280182307,548.0927718210896,1 46032U 20055F   26009.37421859  .00006637  00000+0  46389-3 0  9997,2 46032  53.0547  32.8938 0001316  83.6707 276.4432 15.06409840299955
STARLINK-1556,46033,53.0546,0.0001432,15.06406848,546.1988629760708,548.1822767920848,1 46033U 20055G   26009.35579230  .00006927  00000+0  48337-3 0  9990,2 46033  53.0546  32.9763 0001432  86.4273 273.6879 15.06406848299926
STARLINK-1557,46034,53.0548,0.0001279,15.06395783,546.3387287324613,548.1102361996764,1 46034U 20055H   26009.35948267 -.00000482  00000+0 -13480-4 0  9995,2 46034  53.0548  32.9593 0001279  88.1455 271.9681 15.06395783299927
STARLINK-1558,46035,53.0544,0.0001354,15.06412948,546.2341876457713,548.1095612889776,1 46035U 20055J   26009.49954219  .00003885  00000+0  27944-3 0  9992,2 46035  53.0544  32.3339 0001354  98.1517 261.9626 15.06412948299976
STARLINK-1560,46036,53.0549,0.0001398,15.06404325,546.2301405926219,548.1664643431914,1 46036U 20055K   26009.35211255  .00008015  00000+0  55627-3 0  9993,2 46036  53.0549  32.9951 0001398  83.6633 276.4515 15.06404325299950
STARLINK-1567,46038,53.0542,0.0001222,15.06391161,546.3923674284651,548.0849292369176,1 46038U 20055M   26009.36318590  .00004314  00000+0  30841-3 0  9995,2 46038  53.0542  32.9447 0001222  97.6954 262.4174 15.06391161299940
STARLINK-1569,46039,53.0548,0.0001348,15.0640394,546.2659470742292,548.1330177898935,1 46039U 20055N   26009.37053573  .00003480  00000+0  25241-3 0  9995,2 46039  53.0548  32.9121 0001348  86.9214 273.1929 15.06403940299941
STARLINK-1582,46043,53.0546,0.000139,15.06388781,546.2833145418017,548.2085709998919,1 46043U 20055S   26009.37791943  .00009116  00000+0  63026-3 0  9995,2 46043  53.0546  32.8785 0001390  95.5583 264.5565 15.06388781299946
STARLINK-1591,46045,53.0553,0.0001531,15.06415384,546.1041449495806,548.2246722408918,1 46045U 20055U   26009.33735569  .00000453  00000+0  49288-4 0  9995,2 46045  53.0553  33.0608 0001531  89.8561 270.2603 15.06415384299927
STARLINK-1524,46047,53.0553,0.0001083,15.06401617,546.456587358497,547.9566167827043,1 46047U 20055W   26009.35671383 -.00001249  00000+0 -64966-4 0  9998,2 46047  53.0553  22.9742 0001083  80.5890 279.5221 15.06401617300082
STARLINK-1527,46048,53.055,0.000161,15.06420608,546.0334271573165,548.2633690555067,1 46048U 20055X   26009.28669597  .00010854  00000+0  74604-3 0  9994,2 46048  53.0550  23.2876 0001610  77.9390 282.1779 15.06420608300059
STARLINK-1540,46051,53.0562,0.0001518,15.06410531,546.1280191164205,548.2305451396751,1 46051U 20055AA  26009.31985244  .00002930  00000+0  21548-3 0  9997,2 46051  53.0562  23.1401 0001518  97.6464 262.4697 15.06410531300095
STARLINK-1541,46052,53.055,0.00014,15.06412741,546.202965552302,548.1420522147891,1 46052U 20055AB  26009.30511349  .00009203  00000+0  63572-3 0  9991,2 46052  53.0550  23.2046 0001400  90.8121 269.3028 15.06412741300059
STARLINK-1543,46053,53.0552,0.0001382,15.06408212,546.2293097629363,548.1434691477825,1 46053U 20055AC  26009.30879491  .00001917  00000+0  14750-3 0  9995,2 46053  53.0552  23.1883 0001382  86.6103 273.5044 15.06408212300088
STARLINK-1548,46054,53.0545,0.0001557,15.06409249,546.1049388735246,548.2614835873019,1 46054U 20055AD  26009.31616500  .00000654  00000+0  62803-4 0  9997,2 46054  53.0545  23.1539 0001557  89.8455 270.2712 15.06409249300085
STARLINK-1554,46055,53.0549,0.0001375,15.06412902,546.2197854591104,548.1242454383582,1 46055U 20055AE  26009.30142622  .00006696  00000+0  46784-3 0  9997,2 46055  53.0549  23.2213 0001375  91.7274 268.3872 15.06412902300084
STARLINK-1564,46058,53.0547,0.0001644,15.0642098,546.0087412742023,548.285774738235,1 46058U 20055AH  26009.24619606  .00005916  00000+0  41549-3 0  9992,2 46058  53.0547  23.9322 0001644  88.6611 271.4566 15.06420980300060
STARLINK-1570,46059,53.0551,0.0001421,15.06408932,546.2000946399121,548.1682709200577,1 46059U 20055AJ  26009.34197108  .00000429  00000+0  47669-4 0  9996,2 46059  53.0551  23.0426 0001421  92.4479 267.6672 15.06408932300046
STARLINK-1572,46060,53.0558,0.0001447,15.06407634,546.1860663757961,548.1902554773687,1 46060U 20055AK  26009.47097960  .00008662  00000+0  59953-3 0  9992,2 46060  53.0558  22.4594 0001447  94.8897 265.2257 15.06407634300076
STARLINK-1573,46061,53.0548,0.0001377,15.06417589,546.2040376376799,548.1112637844863,1 46061U 20055AL  26009.33460270  .00003698  00000+0  26689-3 0  9990,2 46061  53.0548  23.1091 0001377  78.4145 281.6998 15.06417589300087
STARLINK-1577,46063,53.057,0.0001472,15.06410634,546.1595599413176,548.1983729618405,1 46063U 20055AN  26009.29405305  .00001080  00000+0  91337-4 0  9991,2 46063  53.0570  23.2550 0001472  85.9550 274.1608 15.06410634300072
STARLINK-1583,46064,53.0548,0.000118,15.06408127,546.3694617750671,548.0038381564591,1 46064U 20055AP  26009.26088190  .00003375  00000+0  24531-3 0  9998,2 46064  53.0548  23.4039 0001180  91.0092 269.1033 15.06408127300077
